{
  "type": "FeatureCollection",
  "name": "moerasdraak-den-bosch",
  "features": [
    {
      "type": "Feature",
      "properties": {
        "legIndex": 0,
        "fromStopId": "drakenfontein",
        "toStopId": "zoete-lieve-gerritje",
        "corridor": "Stationsweg → Visstraat → Vismarkt/Lepelstraat"
      },
      "geometry": {
        "type": "LineString",
        "coordinates": [
          [5.296208, 51.690506],
          [5.29636, 51.690538],
          [5.296385, 51.690604],
          [5.29647, 51.690599],
          [5.297294, 51.690554],
          [5.29791, 51.690521],
          [5.298204, 51.690505],
          [5.298479, 51.690406],
          [5.298914, 51.690389],
          [5.2992, 51.690369],
          [5.299194, 51.690322],
          [5.299779, 51.690317],
          [5.300398, 51.690324],
          [5.300821, 51.690359],
          [5.301075, 51.690391],
          [5.300821, 51.690359],
          [5.300398, 51.690324],
          [5.300497, 51.690101],
          [5.300609, 51.689847],
          [5.3006, 51.689734],
          [5.300226, 51.68971],
          [5.299843, 51.689703],
          [5.299807, 51.689702],
          [5.299926, 51.689817]
        ]
      }
    },
    {
      "type": "Feature",
      "properties": {
        "legIndex": 1,
        "fromStopId": "zoete-lieve-gerritje",
        "toStopId": "binnendieze",
        "corridor": "Korenbrugstraat/Uilenburg → Snellestraat/Minderbroedersstraat → Hinthamerstraat/Korte Waterstraat"
      },
      "geometry": {
        "type": "LineString",
        "coordinates": [
          [5.299926, 51.689817],
          [5.2998, 51.689722],
          [5.299843, 51.689703],
          [5.300226, 51.68971],
          [5.3006, 51.689734],
          [5.300715, 51.689496],
          [5.300601, 51.689673],
          [5.300717, 51.689764],
          [5.301242, 51.689826],
          [5.301532, 51.689529],
          [5.301617, 51.689314],
          [5.301765, 51.689088],
          [5.301829, 51.688799],
          [5.301905, 51.688691],
          [5.302738, 51.688725],
          [5.302824, 51.688973],
          [5.302937, 51.6886],
          [5.303419, 51.688633],
          [5.30389, 51.68875],
          [5.304268, 51.688887],
          [5.304535, 51.689146],
          [5.304748, 51.68916],
          [5.304997, 51.689116],
          [5.305072, 51.689242],
          [5.305153, 51.689358],
          [5.305212, 51.689512],
          [5.305258, 51.689561],
          [5.305319, 51.689616],
          [5.30519, 51.689641]
        ]
      }
    },
    {
      "type": "Feature",
      "properties": {
        "legIndex": 2,
        "fromStopId": "binnendieze",
        "toStopId": "bosch-wezen",
        "corridor": "Korte Waterstraat → Hinthamerstraat → Markt"
      },
      "geometry": {
        "type": "LineString",
        "coordinates": [
          [5.30519, 51.689641],
          [5.305312, 51.689641],
          [5.305319, 51.689616],
          [5.305258, 51.689561],
          [5.305206, 51.689551],
          [5.305153, 51.689358],
          [5.305078, 51.689249],
          [5.305014, 51.689165],
          [5.304981, 51.689118],
          [5.304834, 51.689145],
          [5.304674, 51.689172],
          [5.304645, 51.689068],
          [5.304617, 51.688968]
        ]
      }
    },
    {
      "type": "Feature",
      "properties": {
        "legIndex": 3,
        "fromStopId": "bosch-wezen",
        "toStopId": "sint-jan",
        "corridor": "Markt → Kerkstraat/Torenstraat → Parade"
      },
      "geometry": {
        "type": "LineString",
        "coordinates": [
          [5.304617, 51.688968],
          [5.304927, 51.689015],
          [5.305296, 51.68897],
          [5.305699, 51.688928],
          [5.305754, 51.688915],
          [5.305707, 51.688602],
          [5.305726, 51.688479],
          [5.305644, 51.688318],
          [5.305585, 51.688212],
          [5.30561, 51.68817],
          [5.305793, 51.688107],
          [5.3062, 51.688156],
          [5.306262, 51.688378],
          [5.306158, 51.688035],
          [5.306792, 51.687934],
          [5.307504, 51.687866],
          [5.307492, 51.68809],
          [5.30755, 51.688269],
          [5.307492, 51.68809],
          [5.307503, 51.68782],
          [5.308427, 51.687735],
          [5.308464, 51.687992]
        ]
      }
    },
    {
      "type": "Feature",
      "properties": {
        "legIndex": 4,
        "fromStopId": "sint-jan",
        "toStopId": "kruithuis",
        "corridor": "Parade/Choorstraat → Hinthamerstraat/Sint Josephstraat → Kardinaal van Rossumplein → Zuid-Willemsvaart → Citadellaan"
      },
      "geometry": {
        "type": "LineString",
        "coordinates": [
          [5.308464, 51.687992],
          [5.308904, 51.68774],
          [5.309389, 51.687684],
          [5.309488, 51.688068],
          [5.309096, 51.688372],
          [5.309117, 51.688604],
          [5.308697, 51.688715],
          [5.308919, 51.689088],
          [5.309191, 51.689621],
          [5.309389, 51.690006],
          [5.309278, 51.689809],
          [5.308526, 51.689942],
          [5.308, 51.69],
          [5.308054, 51.690798],
          [5.307804, 51.690998],
          [5.307545, 51.691173],
          [5.307584, 51.691276],
          [5.307996, 51.691476],
          [5.308478, 51.691772],
          [5.30982, 51.691167],
          [5.308478, 51.691772],
          [5.309159, 51.692284],
          [5.309534, 51.692692],
          [5.30829, 51.693254],
          [5.307707, 51.693514],
          [5.306747, 51.693826],
          [5.305168, 51.694535],
          [5.304779, 51.694198],
          [5.305408, 51.693926],
          [5.305112, 51.693656]
        ]
      }
    },
    {
      "type": "Feature",
      "properties": {
        "legIndex": 5,
        "fromStopId": "kruithuis",
        "toStopId": "bossche-brouwers",
        "corridor": "Citadellaan → Diezebrug → Tramkade"
      },
      "geometry": {
        "type": "LineString",
        "coordinates": [
          [5.305112, 51.693656],
          [5.305313, 51.693842],
          [5.305117, 51.693903],
          [5.304775, 51.693835],
          [5.304424, 51.693889],
          [5.304183, 51.693672],
          [5.30375, 51.69384],
          [5.30341, 51.694008],
          [5.303592, 51.694107],
          [5.303095, 51.694444],
          [5.302938, 51.694573],
          [5.302819, 51.694412],
          [5.302485, 51.694601],
          [5.302112, 51.69495],
          [5.301735, 51.695522],
          [5.301456, 51.69572],
          [5.301549, 51.695814],
          [5.300846, 51.695432],
          [5.300052, 51.694928],
          [5.299161, 51.694383],
          [5.299024, 51.694607],
          [5.299589, 51.694873],
          [5.30011, 51.69522],
          [5.300378, 51.695509],
          [5.299977, 51.696152],
          [5.300019, 51.696283],
          [5.299862, 51.696532],
          [5.299564, 51.696906],
          [5.29929, 51.6969]
        ]
      }
    }
  ]
}
